{
  "type": "FeatureCollection",
  "features": [
    {
      "type": "Feature",
      "properties": {
        "norad_id": 31462,
        "name": "FENGYUN 1C DEB",
        "group": "fengyun-1c-debris",
        "lat": -59.41644818192989,
        "lon": 177.13902824433836,
        "alt_km": 843.3294765018336,
        "timestamp": "2025-12-19T22:41:52.675984+00:00",
        "meta_object_name": "FENGYUN 1C DEB",
        "meta_object_id": "1999-025BVA",
        "meta_epoch": "2025-12-17T00:11:35.659104",
        "meta_mean_motion": 14.13016034,
        "meta_eccentricity": 0.00322795,
        "meta_inclination": 98.6896,
        "meta_ra_of_asc_node": 9.2845,
        "meta_arg_of_pericenter": 192.0461,
        "meta_mean_anomaly": 232.8507,
        "meta_ephemeris_type": 0,
        "meta_classification_type": "U",
        "meta_norad_cat_id": 31462,
        "meta_element_set_no": 999,
        "meta_rev_at_epoch": 95916,
        "meta_bstar": 0.00031044723,
        "meta_mean_motion_dot": 5.39e-06,
        "meta_mean_motion_ddot": 0,
        "tle_line1": "1 31462U 99025BVA 25351.00805161  .00000539  00000+0  31045-3 0  9990",
        "tle_line2": "2 31462  98.6896   9.2845 0032279 192.0461 232.8507 14.13016034959168"
      },
      "geometry": {
        "type": "Point",
        "coordinates": [
          177.13902824433836,
          -59.41644818192989
        ]
      }
    },
    {
      "type": "Feature",
      "properties": {
        "norad_id": 31463,
        "name": "FENGYUN 1C DEB",
        "group": "fengyun-1c-debris",
        "lat": 69.44209004132269,
        "lon": -178.7276792876819,
        "alt_km": 757.7517464777975,
        "timestamp": "2025-12-19T22:41:52.675994+00:00",
        "meta_object_name": "FENGYUN 1C DEB",
        "meta_object_id": "1999-025BVB",
        "meta_epoch": "2025-12-17T05:02:14.245440",
        "meta_mean_motion": 14.36964853,
        "meta_eccentricity": 0.02135653,
        "meta_inclination": 99.0801,
        "meta_ra_of_asc_node": 333.1449,
        "meta_arg_of_pericenter": 26.7734,
        "meta_mean_anomaly": 334.4288,
        "meta_ephemeris_type": 0,
        "meta_classification_type": "U",
        "meta_norad_cat_id": 31463,
        "meta_element_set_no": 999,
        "meta_rev_at_epoch": 64784,
        "meta_bstar": 0.00042071423,
        "meta_mean_motion_dot": 1.563e-05,
        "meta_mean_motion_ddot": 0,
        "tle_line1": "1 31463U 99025BVB 25351.20988710  .00001563  00000+0  42071-3 0  9994",
        "tle_line2": "2 31463  99.0801 333.1449 0213565  26.7734 334.4288 14.36964853647844"
      },
      "geometry": {
        "type": "Point",
        "coordinates": [
          -178.7276792876819,
          69.44209004132269
        ]
      }
    },
    {
      "type": "Feature",
      "properties": {
        "norad_id": 31464,
        "name": "FENGYUN 1C DEB",
        "group": "fengyun-1c-debris",
        "lat": 10.19484581423402,
        "lon": -137.80840173865673,
        "alt_km": 832.9813564165861,
        "timestamp": "2025-12-19T22:41:52.676005+00:00",
        "meta_object_name": "FENGYUN 1C DEB",
        "meta_object_id": "1999-025BVC",
        "meta_epoch": "2025-12-17T21:26:19.859424",
        "meta_mean_motion": 14.12482358,
        "meta_eccentricity": 0.00433522,
        "meta_inclination": 98.7942,
        "meta_ra_of_asc_node": 38.5822,
        "meta_arg_of_pericenter": 227.3881,
        "meta_mean_anomaly": 311.7438,
        "meta_ephemeris_type": 0,
        "meta_classification_type": "U",
        "meta_norad_cat_id": 31464,
        "meta_element_set_no": 999,
        "meta_rev_at_epoch": 94752,
        "meta_bstar": 0.00027806813,
        "meta_mean_motion_dot": 4.74e-06,
        "meta_mean_motion_ddot": 0,
        "tle_line1": "1 31464U 99025BVC 25351.89328541  .00000474  00000+0  27807-3 0  9990",
        "tle_line2": "2 31464  98.7942  38.5822 0043352 227.3881 311.7438 14.12482358947527"
      },
      "geometry": {
        "type": "Point",
        "coordinates": [
          -137.80840173865673,
          10.19484581423402
        ]
      }
    },
    {
      "type": "Feature",
      "properties": {
        "norad_id": 31466,
        "name": "FENGYUN 1C DEB",
        "group": "fengyun-1c-debris",
        "lat": -36.051855702891665,
        "lon": 97.39325279351527,
        "alt_km": 763.6151997302968,
        "timestamp": "2025-12-19T22:41:52.676015+00:00",
        "meta_object_name": "FENGYUN 1C DEB",
        "meta_object_id": "1999-025BVE",
        "meta_epoch": "2025-12-16T02:14:17.384928",
        "meta_mean_motion": 14.1852535,
        "meta_eccentricity": 0.02990788,
        "meta_inclination": 99.0889,
        "meta_ra_of_asc_node": 280.1326,
        "meta_arg_of_pericenter": 299.2838,
        "meta_mean_anomaly": 57.8749,
        "meta_ephemeris_type": 0,
        "meta_classification_type": "U",
        "meta_norad_cat_id": 31466,
        "meta_element_set_no": 999,
        "meta_rev_at_epoch": 96376,
        "meta_bstar": 0.00020920335,
        "meta_mean_motion_dot": 6.16e-06,
        "meta_mean_motion_ddot": 0,
        "tle_line1": "1 31466U 99025BVE 25350.09325677  .00000616  00000+0  20920-3 0  9997",
        "tle_line2": "2 31466  99.0889 280.1326 0299078 299.2838  57.8749 14.18525350963768"
      },
      "geometry": {
        "type": "Point",
        "coordinates": [
          97.39325279351527,
          -36.051855702891665
        ]
      }
    },
    {
      "type": "Feature",
      "properties": {
        "norad_id": 31468,
        "name": "FENGYUN 1C DEB",
        "group": "fengyun-1c-debris",
        "lat": -51.12317823470366,
        "lon": 0.056841148204233506,
        "alt_km": 857.1035115182203,
        "timestamp": "2025-12-19T22:41:52.676025+00:00",
        "meta_object_name": "FENGYUN 1C DEB",
        "meta_object_id": "1999-025BVG",
        "meta_epoch": "2025-12-15T17:40:52.277088",
        "meta_mean_motion": 14.46598121,
        "meta_eccentricity": 0.01665536,
        "meta_inclination": 98.1678,
        "meta_ra_of_asc_node": 345.7354,
        "meta_arg_of_pericenter": 157.6429,
        "meta_mean_anomaly": 203.2135,
        "meta_ephemeris_type": 0,
        "meta_classification_type": "U",
        "meta_norad_cat_id": 31468,
        "meta_element_set_no": 999,
        "meta_rev_at_epoch": 67415,
        "meta_bstar": 0.00027310227,
        "meta_mean_motion_dot": 1.122e-05,
        "meta_mean_motion_ddot": 0,
        "tle_line1": "1 31468U 99025BVG 25349.73671617  .00001122  00000+0  27310-3 0  9999",
        "tle_line2": "2 31468  98.1678 345.7354 0166553 157.6429 203.2135 14.46598121674154"
      },
      "geometry": {
        "type": "Point",
        "coordinates": [
          0.056841148204233506,
          -51.12317823470366
        ]
      }
    },
    {
      "type": "Feature",
      "properties": {
        "norad_id": 31473,
        "name": "FENGYUN 1C DEB",
        "group": "fengyun-1c-debris",
        "lat": 21.78487851767115,
        "lon": 23.429246909741853,
        "alt_km": 751.2933502382975,
        "timestamp": "2025-12-19T22:41:52.676035+00:00",
        "meta_object_name": "FENGYUN 1C DEB",
        "meta_object_id": "1999-025BVM",
        "meta_epoch": "2025-12-19T07:45:43.627968",
        "meta_mean_motion": 14.29830542,
        "meta_eccentricity": 0.0064578,
        "meta_inclination": 98.5452,
        "meta_ra_of_asc_node": 26.2636,
        "meta_arg_of_pericenter": 355.3694,
        "meta_mean_anomaly": 64.8933,
        "meta_ephemeris_type": 0,
        "meta_classification_type": "U",
        "meta_norad_cat_id": 31473,
        "meta_element_set_no": 999,
        "meta_rev_at_epoch": 69615,
        "meta_bstar": 0.0010461,
        "meta_mean_motion_dot": 2.708e-05,
        "meta_mean_motion_ddot": 0,
        "tle_line1": "1 31473U 99025BVM 25353.32342162  .00002708  00000+0  10461-2 0  9994",
        "tle_line2": "2 31473  98.5452  26.2636 0064578 355.3694  64.8933 14.29830542696151"
      },
      "geometry": {
        "type": "Point",
        "coordinates": [
          23.429246909741853,
          21.78487851767115
        ]
      }
    },
    {
      "type": "Feature",
      "properties": {
        "norad_id": 31474,
        "name": "FENGYUN 1C DEB",
        "group": "fengyun-1c-debris",
        "lat": 11.020482997447338,
        "lon": -138.27418562322023,
        "alt_km": 808.8575183750681,
        "timestamp": "2025-12-19T22:41:52.676045+00:00",
        "meta_object_name": "FENGYUN 1C DEB",
        "meta_object_id": "1999-025BVN",
        "meta_epoch": "2025-12-17T20:31:53.420160",
        "meta_mean_motion": 14.10616871,
        "meta_eccentricity": 0.00720818,
        "meta_inclination": 99.1448,
        "meta_ra_of_asc_node": 37.8022,
        "meta_arg_of_pericenter": 192.292,
        "meta_mean_anomaly": 167.6494,
        "meta_ephemeris_type": 0,
        "meta_classification_type": "U",
        "meta_norad_cat_id": 31474,
        "meta_element_set_no": 999,
        "meta_rev_at_epoch": 95042,
        "meta_bstar": 0.0012018353,
        "meta_mean_motion_dot": 2.151e-05,
        "meta_mean_motion_ddot": 0,
        "tle_line1": "1 31474U 99025BVN 25351.85547940  .00002151  00000+0  12018-2 0  9994",
        "tle_line2": "2 31474  99.1448  37.8022 0072081 192.2920 167.6494 14.10616871950423"
      },
      "geometry": {
        "type": "Point",
        "coordinates": [
          -138.27418562322023,
          11.020482997447338
        ]
      }
    }
  ]
}